NORAD_CAT_ID,OBJECT_NAME,OBJECT_TYPE,EPOCH,MEAN_MOTION,ECCENTRICITY,INCLINATION,RA_OF_ASC_NODE,ARG_OF_PERICENTER,MEAN_ANOMALY,BSTAR,MEAN_MOTION_DOT,MEAN_MOTION_DDOT,TLE_LINE0,TLE_LINE1,TLE_LINE2,SEMIMAJOR_AXIS,PERIOD,APOGEE,PERIGEE,DECAYED
52539.0,STARLINK-3757,PAYLOAD,2023-03-09 03:51:41,15.08860527,0.0001244,53.2179,11.6285,111.6129,248.4996,0.00087479,0.00013669,0.0,0 STARLINK-3757,1 52539U 22051G   23068.16089707  .00013669  00000-0  87479-3 0  9994,2 52539  53.2179  11.6285 0001244 111.6129 248.4996 15.08860527 45900,6917.818,95.436,540.543,538.822,0.0
52539.0,STARLINK-3757,PAYLOAD,2023-03-10 05:17:51,15.08880098,0.0001454,53.2185,6.8676,107.1591,252.956,0.0015154,0.00023938,0.0,0 STARLINK-3757,1 52539U 22051G   23069.22072930  .00023938  00000-0  15154-2 0  9992,2 52539  53.2185   6.8676 0001454 107.1591 252.9560 15.08880098 46131,6917.758,95.435,540.629,538.617,0.0
52539.0,STARLINK-3757,PAYLOAD,2023-03-10 13:14:47,15.08827633,0.0002043,53.2185,5.3848,71.5027,288.6187,-0.00016957,-2.985e-05,0.0,0 STARLINK-3757,1 52539U 22051G   23069.55194300 -.00002985  00000-0 -16957-3 0  9998,2 52539  53.2185   5.3848 0002043  71.5027 288.6187 15.08827633 46181,6917.918,95.438,541.197,538.37,0.0
52539.0,STARLINK-3757,PAYLOAD,2023-03-11 01:57:53,15.08812501,0.0001214,53.2191,3.004,75.4093,284.7034,0.0005909,9.122e-05,0.0,0 STARLINK-3757,1 52539U 22051G   23070.08187221  .00009122  00000-0  59090-3 0  9995,2 52539  53.2191   3.0040 0001214  75.4093 284.7034 15.08812501 46267,6917.964,95.439,540.669,538.99,0.0
52539.0,STARLINK-3757,PAYLOAD,2023-03-12 01:48:40,15.08877757,0.0001368,53.2183,358.5447,64.9593,295.1541,0.002164,0.00034356,0.0,0 STARLINK-3757,1 52539U 22051G   23071.07547064  .00034356  00000-0  21640-2 0  9996,2 52539  53.2183 358.5447 0001368  64.9593 295.1541 15.08877757 46415,6917.765,95.435,540.576,538.684,0.0
52539.0,STARLINK-3757,PAYLOAD,2023-03-12 19:17:54,15.08869,0.0001314,53.2186,355.2742,105.5465,254.5672,0.0020711,0.00032854,0.0,0 STARLINK-3757,1 52539U 22051G   23071.80410778  .00032854  00000-0  20711-2 0  9997,2 52539  53.2186 355.2742 0001314 105.5465 254.5672 15.08869000 46529,6917.792,95.436,540.566,538.748,0.0
52539.0,STARLINK-3757,PAYLOAD,2023-03-13 04:50:13,15.08853397,0.0001102,53.2175,353.4894,88.7308,271.3811,0.0013267,0.00020897,0.0,0 STARLINK-3757,1 52539U 22051G   23072.20154703  .00020897  00000-0  13267-2 0  9997,2 52539  53.2175 353.4894 0001102  88.7308 271.3811 15.08853397 46588,6917.839,95.437,540.467,538.942,0.0
52539.0,STARLINK-3757,PAYLOAD,2023-03-13 19:08:42,15.0882853,9.88e-05,53.2181,350.815,99.2788,260.8316,0.0006529,0.00010115,0.0,0 STARLINK-3757,1 52539U 22051G   23072.79771629  .00010115  00000-0  65290-3 0  9999,2 52539  53.2181 350.8150 0000988  99.2788 260.8316 15.08828530 46675,6917.915,95.438,540.464,539.097,0.0
52539.0,STARLINK-3757,PAYLOAD,2023-03-13 22:19:28,15.08836373,0.0001396,53.2166,350.2105,109.6871,250.4272,0.00083239,0.00012983,0.0,0 STARLINK-3757,1 52539U 22051G   23072.93019546  .00012983  00000-0  83239-3 0  9996,2 52539  53.2166 350.2105 0001396 109.6871 250.4272 15.08836373 46620,6917.891,95.438,540.722,538.791,0.0
52539.0,STARLINK-3757,PAYLOAD,2023-03-14 11:02:33,15.08855079,0.00013,53.2182,347.841,93.6622,266.4519,0.0013347,0.00021026,0.0,0 STARLINK-3757,1 52539U 22051G   23073.46011542  .00021026  00000-0  13347-2 0  9993,2 52539  53.2182 347.8410 0001300  93.6622 266.4519 15.08855079 46771,6917.834,95.437,540.599,538.8,0.0
52539.0,STARLINK-3757,PAYLOAD,2023-03-15 02:56:24,15.08882906,0.0001587,53.2191,344.8702,103.3789,256.738,0.0014401,0.00022732,0.0,0 STARLINK-3757,1 52539U 22051G   23074.12250498  .00022732  00000-0  14401-2 0  9999,2 52539  53.2191 344.8702 0001587 103.3789 256.7380 15.08882906 46803,6917.749,95.435,540.712,538.516,0.0
52539.0,STARLINK-3757,PAYLOAD,2023-03-15 22:01:02,15.08845277,0.0001272,53.2177,341.3021,62.8042,297.308,0.00076557,0.00011919,0.0,0 STARLINK-3757,1 52539U 22051G   23074.91738775  .00011919  00000-0  76557-3 0  9991,2 52539  53.2177 341.3021 0001272  62.8042 297.3080 15.08845277 46926,6917.864,95.437,540.609,538.849,0.0
52539.0,STARLINK-3757,PAYLOAD,2023-03-16 01:11:48,15.08852759,0.000131,53.2182,340.7057,89.3694,270.7449,0.00040651,6.19e-05,0.0,0 STARLINK-3757,1 52539U 22051G   23075.04986497  .00006190  00000-0  40651-3 0  9993,2 52539  53.2182 340.7057 0001310  89.3694 270.7449 15.08852759 47012,6917.841,95.437,540.613,538.8,0.0
52539.0,STARLINK-3757,PAYLOAD,2023-03-16 23:27:13,15.08813316,0.0001313,53.2173,336.5396,97.2603,262.8539,0.0010161,0.00015908,0.0,0 STARLINK-3757,1 52539U 22051G   23075.97724482  .00015908  00000-0  10161-2 0  9998,2 52539  53.2173 336.5396 0001313  97.2603 262.8539 15.08813316 47155,6917.962,95.439,540.735,538.919,0.0
52539.0,STARLINK-3757,PAYLOAD,2023-03-17 10:34:56,15.08832879,0.0001469,53.2175,334.4581,66.3642,293.7504,0.00084618,0.00013202,0.0,0 STARLINK-3757,1 52539U 22051G   23076.44092889  .00013202  00000-0  84618-3 0  9994,2 52539  53.2175 334.4581 0001469  66.3642 293.7504 15.08832879 47152,6917.902,95.438,540.783,538.751,0.0
52539.0,STARLINK-3757,PAYLOAD,2023-03-17 21:42:37,15.08862561,0.0001491,53.2176,332.3771,56.1245,303.9889,0.0012968,0.00020424,0.0,0 STARLINK-3757,1 52539U 22051G   23076.90460316  .00020424  00000-0  12968-2 0  9991,2 52539  53.2176 332.3771 0001491  56.1245 303.9889 15.08862561 47221,6917.811,95.436,540.708,538.645,0.0
52539.0,STARLINK-3757,PAYLOAD,2023-03-18 02:28:46,15.08880133,0.0001612,53.2176,331.4861,55.5944,304.52,0.0016,0.00025296,0.0,0 STARLINK-3757,1 52539U 22051G   23077.10331803  .00025296  00000-0  16000-2 0  9995,2 52539  53.2176 331.4861 0001612  55.5944 304.5200 15.08880133 47325,6917.758,95.435,540.738,538.508,0.0
52539.0,STARLINK-3757,PAYLOAD,2023-03-18 10:25:44,15.08797821,0.0002005,53.2183,329.9994,72.7431,287.3781,-0.00096861,-0.00015653,0.0,0 STARLINK-3757,1 52539U 22051G   23077.43453800 -.00015653  00000-0 -96861-3 0  9995,2 52539  53.2183 329.9994 0002005  72.7431 287.3781 15.08797821 47379,6918.009,95.44,541.261,538.487,0.0
52539.0,STARLINK-3757,PAYLOAD,2023-03-18 21:33:25,15.08849734,0.0001497,53.2179,327.918,57.2245,302.8891,0.0010603,0.00016631,0.0,0 STARLINK-3757,1 52539U 22051G   23077.89821225  .00016631  00000-0  10603-2 0  9999,2 52539  53.2179 327.9180 0001497  57.2245 302.8891 15.08849734 47448,6917.851,95.437,540.751,538.68,0.0
52539.0,STARLINK-3757,PAYLOAD,2023-03-18 23:08:48,15.08856462,0.0001273,53.2172,327.6171,103.4003,256.7131,0.0020037,0.00031759,0.0,0 STARLINK-3757,1 52539U 22051G   23077.96445075  .00031759  00000-0  20037-2 0  9992,2 52539  53.2172 327.6171 0001273 103.4003 256.7131 15.08856462 47389,6917.83,95.437,540.576,538.814,0.0
52539.0,STARLINK-3757,PAYLOAD,2023-03-19 19:48:48,15.08867083,0.0001307,53.2176,323.7536,103.1984,256.9154,0.00098108,0.00015372,0.0,0 STARLINK-3757,1 52539U 22051G   23078.82556219  .00015372  00000-0  98108-3 0  9999,2 52539  53.2176 323.7536 0001307 103.1984 256.9154 15.08867083 47588,6917.798,95.436,540.567,538.758,0.0
52539.0,STARLINK-3757,PAYLOAD,2023-03-19 21:24:11,15.08865017,0.0001385,53.217,323.457,101.9323,258.1825,0.00051488,7.921e-05,0.0,0 STARLINK-3757,1 52539U 22051G   23078.89180090  .00007921  00000-0  51488-3 0  9997,2 52539  53.2170 323.4570 0001385 101.9323 258.1825 15.08865017 47524,6917.804,95.436,540.627,538.711,0.0
52539.0,STARLINK-3757,PAYLOAD,2023-03-20 02:10:20,15.08861736,0.0001462,53.2176,322.5648,98.5801,261.5357,0.00053836,8.295e-05,0.0,0 STARLINK-3757,1 52539U 22051G   23079.09051769  .00008295  00000-0  53836-3 0  9994,2 52539  53.2176 322.5648 0001462  98.5801 261.5357 15.08861736 47627,6917.814,95.436,540.69,538.668,0.0
52539.0,STARLINK-3757,PAYLOAD,2023-03-20 22:50:21,15.08854782,0.000129,53.2174,318.701,77.4133,282.7003,0.0001668,2.369e-05,0.0,0 STARLINK-3757,1 52539U 22051G   23079.95163557  .00002369  00000-0  16680-3 0  9990,2 52539  53.2174 318.7010 0001290  77.4133 282.7003 15.08854782 47758,6917.835,95.437,540.593,538.808,0.0
52539.0,STARLINK-3757,PAYLOAD,2023-03-21 02:01:07,15.0885725,0.0001265,53.2171,318.1052,75.9234,284.1899,0.0004838,7.424e-05,0.0,0 STARLINK-3757,1 52539U 22051G   23080.08411449  .00007424  00000-0  48380-3 0  9991,2 52539  53.2171 318.1052 0001265  75.9234 284.1899 15.08857250 47709,6917.828,95.436,540.568,538.818,0.0
52539.0,STARLINK-3757,PAYLOAD,2023-03-21 19:30:22,15.08841209,0.0001271,53.2167,314.8332,71.0597,289.0533,8.5035e-05,1.066e-05,0.0,0 STARLINK-3757,1 52539U 22051G   23080.81275553  .00001066  00000-0  85035-4 0  9991,2 52539  53.2167 314.8332 0001271  71.0597 289.0533 15.08841209 47889,6917.877,95.437,540.621,538.862,0.0
52539.0,STARLINK-3757,PAYLOAD,2023-03-21 22:41:07,15.08851544,0.0001084,53.2164,314.2382,75.7722,284.3391,0.00013669,1.889e-05,0.0,0 STARLINK-3757,1 52539U 22051G   23080.94523054  .00001889  00000-0  13669-3 0  9993,2 52539  53.2164 314.2382 0001084  75.7722 284.3391 15.08851544 47836,6917.845,95.437,540.46,538.96,0.0
52539.0,STARLINK-3757,PAYLOAD,2023-03-22 00:16:31,15.08851122,0.0001054,53.2164,313.9411,76.0392,284.0718,0.00025243,3.733e-05,0.0,0 STARLINK-3757,1 52539U 22051G   23081.01147093  .00003733  00000-0  25243-3 0  9998,2 52539  53.2164 313.9411 0001054  76.0392 284.0718 15.08851122 47910,6917.846,95.437,540.441,538.982,0.0
52539.0,STARLINK-3757,PAYLOAD,2023-03-22 19:21:09,15.08840416,0.0001013,53.2165,310.3763,75.5444,284.5661,-1.2208e-05,-4.82e-06,0.0,0 STARLINK-3757,1 52539U 22051G   23081.80635541 -.00000482  00000-0 -12208-4 0  9993,2 52539  53.2165 310.3763 0001013  75.5444 284.5661 15.08840416 48039,6917.879,95.438,540.445,539.043,0.0
52539.0,STARLINK-3757,PAYLOAD,2023-03-22 20:56:32,15.08842136,0.0001145,53.2168,310.0768,68.8374,291.2741,1.6498e-06,-2.62e-06,0.0,0 STARLINK-3757,1 52539U 22051G   23081.87259505 -.00000262  00000-0  16498-5 0  9993,2 52539  53.2168 310.0768 0001145  68.8374 291.2741 15.08842136 47974,6917.874,95.437,540.531,538.947,0.0
